{
    "links": {
        "self": "http://www.neowsapp.com/rest/v1/neo/3532364?api_key=iIulBulltgU6a56xZRHN4H3l9WmuAYTsLGpBGhQ2"
    },
    "id": "3532364",
    "neo_reference_id": "3532364",
    "name": "(2010 MG1)",
    "designation": "2010 MG1",
    "nasa_jpl_url": "http://ssd.jpl.nasa.gov/sbdb.cgi?sstr=3532364",
    "absolute_magnitude_h": 23.3,
    "estimated_diameter": {
        "kilometers": {
            "estimated_diameter_min": 0.058150704,
            "estimated_diameter_max": 0.130028927
        },
        "meters": {
            "estimated_diameter_min": 58.1507039646,
            "estimated_diameter_max": 130.0289270043
        },
        "miles": {
            "estimated_diameter_min": 0.0361331611,
            "estimated_diameter_max": 0.0807962044
        },
        "feet": {
            "estimated_diameter_min": 190.7831555951,
            "estimated_diameter_max": 426.6041048727
        }
    },
    "is_potentially_hazardous_asteroid": false,
    "close_approach_data": [
        {
            "close_approach_date": "2010-07-13",
            "close_approach_date_full": "2010-Jul-13 22:15",
            "epoch_date_close_approach": 1279059300000,
            "relative_velocity": {
                "kilometers_per_second": "8.4829071267",
                "kilometers_per_hour": "30538.4656560559",
                "miles_per_hour": "18975.4149516754"
            },
            "miss_distance": {
                "astronomical": "0.0640446786",
                "lunar": "24.9133799754",
                "kilometers": "9580947.503394582",
                "miles": "5953324.7192739516"
            },
            "orbiting_body": "Earth"
        }
    ],
    "orbital_data": {
        "orbit_id": "8",
        "orbit_determination_date": "2017-04-06 08:57:13",
        "first_observation_date": "2010-06-19",
        "last_observation_date": "2010-07-06",
        "data_arc_in_days": 17,
        "observations_used": 28,
        "orbit_uncertainty": "9",
        "minimum_orbit_intersection": ".0357697",
        "jupiter_tisserand_invariant": "3.678",
        "epoch_osculation": "2455373.5",
        "eccentricity": ".5097362919253786",
        "semi_major_axis": "1.984207802995866",
        "inclination": "6.586610168266747",
        "ascending_node_longitude": "263.3172446696747",
        "orbital_period": "1020.890486330676",
        "perihelion_distance": ".9727850750873512",
        "perihelion_argument": "49.87457298357877",
        "aphelion_distance": "2.995630530904382",
        "perihelion_time": "2455410.680836928568",
        "mean_anomaly": "346.8887980899952",
        "mean_motion": ".3526333184805413",
        "equinox": "J2000",
        "orbit_class": {
            "orbit_class_type": "APO",
            "orbit_class_description": "Near-Earth asteroid orbits which cross the Earth’s orbit similar to that of 1862 Apollo",
            "orbit_class_range": "a (semi-major axis) > 1.0 AU; q (perihelion) < 1.017 AU"
        }
    },
    "is_sentry_object": false
}